{
  "type": "FeatureCollection",
  "features": [
    {
      "type": "Feature",
      "properties": {
        "norad_id": 37683,
        "name": "FENGYUN 1C DEB",
        "group": "fengyun-1c-debris",
        "lat": 10.960117242131197,
        "lon": -102.80140937243407,
        "alt_km": 1462.1523412968663,
        "timestamp": "2025-12-02T19:35:50.845409+00:00",
        "meta_object_name": "FENGYUN 1C DEB",
        "meta_object_id": "1999-025EKY",
        "meta_epoch": "2025-11-29T13:02:49.803072",
        "meta_mean_motion": 13.31846496,
        "meta_eccentricity": 0.05843824,
        "meta_inclination": 98.0006,
        "meta_ra_of_asc_node": 256.1924,
        "meta_arg_of_pericenter": 158.6957,
        "meta_mean_anomaly": 12.7497,
        "meta_ephemeris_type": 0,
        "meta_classification_type": "U",
        "meta_norad_cat_id": 37683,
        "meta_element_set_no": 999,
        "meta_rev_at_epoch": 29064,
        "meta_bstar": 0.0011107018,
        "meta_mean_motion_dot": 1.369e-05,
        "meta_mean_motion_ddot": 0,
        "tle_line1": "1 37683U 99025EKY 25333.54363198  .00001369  00000+0  11107-2 0  9997",
        "tle_line2": "2 37683  98.0006 256.1924 0584382 158.6957  12.7497 13.31846496290648"
      },
      "geometry": {
        "type": "Point",
        "coordinates": [
          -102.80140937243407,
          10.960117242131197
        ]
      }
    },
    {
      "type": "Feature",
      "properties": {
        "norad_id": 37686,
        "name": "FENGYUN 1C DEB",
        "group": "fengyun-1c-debris",
        "lat": -80.7531763587265,
        "lon": 99.02823598253904,
        "alt_km": 1410.0477076149027,
        "timestamp": "2025-12-02T19:35:50.845419+00:00",
        "meta_object_name": "FENGYUN 1C DEB",
        "meta_object_id": "1999-025ELB",
        "meta_epoch": "2025-12-02T07:33:22.437792",
        "meta_mean_motion": 13.35350269,
        "meta_eccentricity": 0.0396452,
        "meta_inclination": 99.0209,
        "meta_ra_of_asc_node": 355.9344,
        "meta_arg_of_pericenter": 68.1356,
        "meta_mean_anomaly": 310.8807,
        "meta_ephemeris_type": 0,
        "meta_classification_type": "U",
        "meta_norad_cat_id": 37686,
        "meta_element_set_no": 999,
        "meta_rev_at_epoch": 60488,
        "meta_bstar": 0.0007759,
        "meta_mean_motion_dot": 5.81e-06,
        "meta_mean_motion_ddot": 0,
        "tle_line1": "1 37686U 99025ELB 25336.31484303  .00000581  00000+0  77590-3 0  9994",
        "tle_line2": "2 37686  99.0209 355.9344 0396452  68.1356 310.8807 13.35350269604882"
      },
      "geometry": {
        "type": "Point",
        "coordinates": [
          99.02823598253904,
          -80.7531763587265
        ]
      }
    },
    {
      "type": "Feature",
      "properties": {
        "norad_id": 37687,
        "name": "FENGYUN 1C DEB",
        "group": "fengyun-1c-debris",
        "lat": -21.713667940755712,
        "lon": 16.456900668580257,
        "alt_km": 783.8088285370131,
        "timestamp": "2025-12-02T19:35:50.845429+00:00",
        "meta_object_name": "FENGYUN 1C DEB",
        "meta_object_id": "1999-025ELC",
        "meta_epoch": "2025-11-30T08:50:04.368768",
        "meta_mean_motion": 13.85108073,
        "meta_eccentricity": 0.03342664,
        "meta_inclination": 98.205,
        "meta_ra_of_asc_node": 11.0155,
        "meta_arg_of_pericenter": 33.2837,
        "meta_mean_anomaly": 345.3499,
        "meta_ephemeris_type": 0,
        "meta_classification_type": "U",
        "meta_norad_cat_id": 37687,
        "meta_element_set_no": 999,
        "meta_rev_at_epoch": 83083,
        "meta_bstar": 0.0043068322,
        "meta_mean_motion_dot": 7.516e-05,
        "meta_mean_motion_ddot": 0,
        "tle_line1": "1 37687U 99025ELC 25334.36810612  .00007516  00000+0  43068-2 0  9991",
        "tle_line2": "2 37687  98.2050  11.0155 0334266  33.2837 345.3499 13.85108073830835"
      },
      "geometry": {
        "type": "Point",
        "coordinates": [
          16.456900668580257,
          -21.713667940755712
        ]
      }
    },
    {
      "type": "Feature",
      "properties": {
        "norad_id": 37689,
        "name": "FENGYUN 1C DEB",
        "group": "fengyun-1c-debris",
        "lat": -81.04307655018991,
        "lon": 102.46032733839152,
        "alt_km": 724.0811854889716,
        "timestamp": "2025-12-02T19:35:50.845442+00:00",
        "meta_object_name": "FENGYUN 1C DEB",
        "meta_object_id": "1999-025ELE",
        "meta_epoch": "2025-12-02T01:46:11.045280",
        "meta_mean_motion": 14.4832477,
        "meta_eccentricity": 0.0020133,
        "meta_inclination": 98.9212,
        "meta_ra_of_asc_node": 16.4041,
        "meta_arg_of_pericenter": 272.0566,
        "meta_mean_anomaly": 87.832,
        "meta_ephemeris_type": 0,
        "meta_classification_type": "U",
        "meta_norad_cat_id": 37689,
        "meta_element_set_no": 999,
        "meta_rev_at_epoch": 57658,
        "meta_bstar": 0.002876697,
        "meta_mean_motion_dot": 0.0001075,
        "meta_mean_motion_ddot": 0,
        "tle_line1": "1 37689U 99025ELE 25336.07373895  .00010750  00000+0  28767-2 0  9993",
        "tle_line2": "2 37689  98.9212  16.4041 0020133 272.0566  87.8320 14.48324770576588"
      },
      "geometry": {
        "type": "Point",
        "coordinates": [
          102.46032733839152,
          -81.04307655018991
        ]
      }
    },
    {
      "type": "Feature",
      "properties": {
        "norad_id": 37691,
        "name": "FENGYUN 1C DEB",
        "group": "fengyun-1c-debris",
        "lat": 41.43183886101182,
        "lon": -127.03982952741512,
        "alt_km": 846.2225003929025,
        "timestamp": "2025-12-02T19:35:50.845452+00:00",
        "meta_object_name": "FENGYUN 1C DEB",
        "meta_object_id": "1999-025ELG",
        "meta_epoch": "2025-11-28T11:33:59.986656",
        "meta_mean_motion": 14.57087322,
        "meta_eccentricity": 0.02814118,
        "meta_inclination": 98.3709,
        "meta_ra_of_asc_node": 236.0654,
        "meta_arg_of_pericenter": 194.3013,
        "meta_mean_anomaly": 165.0101,
        "meta_ephemeris_type": 0,
        "meta_classification_type": "U",
        "meta_norad_cat_id": 37691,
        "meta_element_set_no": 999,
        "meta_rev_at_epoch": 85426,
        "meta_bstar": 0.0019395019,
        "meta_mean_motion_dot": 0.0001505,
        "meta_mean_motion_ddot": 0,
        "tle_line1": "1 37691U 99025ELG 25332.48194429  .00015050  00000+0  19395-2 0  9996",
        "tle_line2": "2 37691  98.3709 236.0654 0281411 194.3013 165.0101 14.57087322854266"
      },
      "geometry": {
        "type": "Point",
        "coordinates": [
          -127.03982952741512,
          41.43183886101182
        ]
      }
    },
    {
      "type": "Feature",
      "properties": {
        "norad_id": 37693,
        "name": "FENGYUN 1C DEB",
        "group": "fengyun-1c-debris",
        "lat": 57.75954913218366,
        "lon": -37.07131879649934,
        "alt_km": 820.8183598224477,
        "timestamp": "2025-12-02T19:35:50.845463+00:00",
        "meta_object_name": "FENGYUN 1C DEB",
        "meta_object_id": "1999-025ELJ",
        "meta_epoch": "2025-12-02T11:30:57.884832",
        "meta_mean_motion": 14.08449245,
        "meta_eccentricity": 0.007252,
        "meta_inclination": 98.6959,
        "meta_ra_of_asc_node": 336.6471,
        "meta_arg_of_pericenter": 103.3804,
        "meta_mean_anomaly": 49.6986,
        "meta_ephemeris_type": 0,
        "meta_classification_type": "U",
        "meta_norad_cat_id": 37693,
        "meta_element_set_no": 999,
        "meta_rev_at_epoch": 62004,
        "meta_bstar": 0.00062205,
        "meta_mean_motion_dot": 1.051e-05,
        "meta_mean_motion_ddot": 0,
        "tle_line1": "1 37693U 99025ELJ 25336.47983663  .00001051  00000+0  62205-3 0  9992",
        "tle_line2": "2 37693  98.6959 336.6471 0072520 103.3804  49.6986 14.08449245620046"
      },
      "geometry": {
        "type": "Point",
        "coordinates": [
          -37.07131879649934,
          57.75954913218366
        ]
      }
    },
    {
      "type": "Feature",
      "properties": {
        "norad_id": 37694,
        "name": "FENGYUN 1C DEB",
        "group": "fengyun-1c-debris",
        "lat": -41.12833172719933,
        "lon": -142.03049963585244,
        "alt_km": 860.0994811139608,
        "timestamp": "2025-12-02T19:35:50.845475+00:00",
        "meta_object_name": "FENGYUN 1C DEB",
        "meta_object_id": "1999-025ELK",
        "meta_epoch": "2025-11-23T11:03:37.255104",
        "meta_mean_motion": 14.16434986,
        "meta_eccentricity": 0.01492409,
        "meta_inclination": 98.199,
        "meta_ra_of_asc_node": 36.5782,
        "meta_arg_of_pericenter": 149.1235,
        "meta_mean_anomaly": 270.2915,
        "meta_ephemeris_type": 0,
        "meta_classification_type": "U",
        "meta_norad_cat_id": 37694,
        "meta_element_set_no": 999,
        "meta_rev_at_epoch": 51431,
        "meta_bstar": 0.0018793287,
        "meta_mean_motion_dot": 4.13e-05,
        "meta_mean_motion_ddot": 0,
        "tle_line1": "1 37694U 99025ELK 25327.46084786  .00004130  00000+0  18793-2 0  9993",
        "tle_line2": "2 37694  98.1990  36.5782 0149240 149.1235 270.2915 14.16434986514319"
      },
      "geometry": {
        "type": "Point",
        "coordinates": [
          -142.03049963585244,
          -41.12833172719933
        ]
      }
    }
  ]
}